LEMUR-2-ROUNDTRIPPER    
1 62711U 25009DG  26195.17167067  .00005099  00000+0  37125-3 0  9994
2 62711  97.7254 277.8172 0004423  65.7760 294.3928 15.04222333 81686
LEMUR-2-MYNAMEISJEFF    
1 62712U 25009DH  26195.17015149  .00004939  00000+0  35980-3 0  9997
2 62712  97.7303 278.2132 0003980  99.3120 260.8555 15.04213398 81688
LEMUR-2-LEIA-PHILIP     
1 63246U 25052AN  26195.20109921  .00000339  00000+0  34128-4 0  9998
2 63246  97.6809  86.6941 0005085 121.5561 238.6158 14.97391003 72712
LEMUR-2-LIA-MARTIN      
1 63248U 25052AQ  26195.12928089  .00002528  00000+0  21882-3 0  9999
2 63248  97.6873  87.1404 0005376  92.6017 267.5821 14.98025767 72712
LEMUR-2-DELOITTE-1      
1 63259U 25052BB  26194.70871476  .00002283  00000+0  19939-3 0  9999
2 63259  97.6883  87.0566 0002497  66.3822 293.7662 14.97775097 72661
LEMUR-2-EMERSONROSE     
1 63261U 25052BD  26195.19157160  .00002852  00000+0  23849-3 0  9990
2 63261  97.6887  88.1429 0002758  62.7651 297.3853 14.99285612 72784
LEMUR-2-MARACHE-FRAN    
1 63262U 25052BE  26194.68141022  .00001909  00000+0  15702-3 0  9995
2 63262  97.6842  88.0061 0005034 258.6633 101.4026 15.00310104 72733
LEMUR-2-THEFALCONER     
1 63264U 25052BG  26194.93940558  .00001139  00000+0  10255-3 0  9999
2 63264  97.6838  86.8760 0000315 328.2070  31.9133 14.97560808 72692
LEMUR-2-UNTITLED-SC     
1 63351U 25061A   26194.92987453  .00001925  00000+0  11037-3 0  9992
2 63351  97.5650 170.1016 0019107 167.3308 192.8407 15.13641863 71630
LEMUR-2-ESPERANZA       
1 63352U 25061B   26195.16971066  .00001660  00000+0  95468-4 0  9990
2 63352  97.5657 170.4397 0018746 165.6464 194.5304 15.13748560 71676
LEMUR-2-KREMPEL-BRO2    
1 63353U 25061C   26194.99071698  .00001837  00000+0  10397-3 0  9996
2 63353  97.5703 170.8294 0019865 159.2855 200.9186 15.14174614 71668
LEMUR-2-THERMORAPTOR    
1 63354U 25061D   26195.16958370  .00001822  00000+0  10288-3 0  9991
2 63354  97.5709 171.0882 0019645 157.5029 202.7068 15.14257627 71699
LEMUR-2-NEUROSPICY      
1 63355U 25061E   26194.87487542  .00002309  00000+0  12908-3 0  9999
2 63355  97.5636 170.4007 0017345 161.3310 198.8561 15.14375512 71655
LEMUR-2-TILLINFINITY    
1 63356U 25061F   26194.89985514  .00002026  00000+0  11182-3 0  9993
2 63356  97.5622 170.7347 0018939 150.0643 210.1677 15.14959220 71688
LEMUR-2-KREMPEL-BRO1    
1 63357U 25061G   26194.87674087  .00002290  00000+0  12655-3 0  9991
2 63357  97.5622 170.6202 0019554 151.5684 208.6619 15.14766529 71678
LEMUR-2-LANGER2SPACE    
1 63358U 25061H   26194.90860025  .00001787  00000+0  10050-3 0  9992
2 63358  97.5628 170.4552 0017302 159.5245 200.6684 15.14460179 71666
LEMUR-2-BALTO           
1 63395U 25052BH  26195.13266830  .00002706  00000+0  22028-3 0  9993
2 63395  97.6931  88.4383 0005138 332.0768  28.0179 15.00358547 72805
LEMUR-2-KRISH           
1 64561U 25135AK  26194.82305852  .00002093  00000+0  18963-3 0  9996
2 64561  97.7772 309.5216 0001441  95.6216 264.5169 14.96443451 57903
LEMUR-2-HUBBLE-4        
1 64565U 25135AP  26194.86837676  .00001055  00000+0  10517-3 0  9992
2 64565  97.7718 308.4649 0002566 165.5181 194.6112 14.93683552 57852
LEMUR-2-SEJONG-2        
1 64586U 25135BL  26195.17874624  .00002145  00000+0  19196-3 0  9997
2 64586  97.7706 310.0207 0003894 223.7088 136.3826 14.96907030 57981
LEMUR-2-HUBBLE-5        
1 64840U 25135BT  26194.87768044  .00000925  00000+0  91646-4 0  9999
2 64840  97.7739 309.1417 0004246 240.7379 119.3417 14.94211614 57897
LEMUR-2-KARENDARRELL    
1 64841U 25135BU  26194.86273313  .00004386  00000+0  35249-3 0  9990
2 64841  97.7713 311.0352 0012325 108.8027 251.4535 15.00488219 58010
LEMUR-2-LUCILLE-ROSE    
1 65403U 25135BV  26194.56942644  .00003591  00000+0  28939-3 0  9997
2 65403  97.7706 310.7769 0014681 193.9631 166.1189 15.00477141 52594
LEMUR-2-AFFIE-WAUWIE    
1 66295U 25248C   26194.40832245  .00012783  00000+0  46625-3 0  9995
2 66295  45.3884 332.8093 0008714 240.1921 119.8103 15.28200773 38604
OTTER SDM               
1 66678U 25276N   26195.17573470  .00003505  00000+0  16568-3 0  9993
2 66678  97.4208 268.2073 0004268 258.7712 101.3043 15.20049880 34517
LEMUR-2-STAS-GORBUK     
1 66686U 25276W   26195.19690049  .00002977  00000+0  14284-3 0  9991
2 66686  97.4241 268.2799 0003550 253.3006 106.7839 15.19652714 34514
LEMUR-2-TEODOR          
1 66768U 25276DG  26195.15100472  .00003426  00000+0  15612-3 0  9990
2 66768  97.4147 268.5054 0002250  89.0429 271.1064 15.21330418 34543
LEMUR-2-LAILA           
1 66776U 25276DQ  26195.18672459  .00003079  00000+0  13970-3 0  9990
2 66776  97.4170 268.6786 0002891  95.5608 264.5957 15.21556874 34557
LEMUR-2-CELIJO-SB-PK    
1 66781U 25276DW  26195.18444205  .00002764  00000+0  22511-3 0  9993
2 66781  97.5200 265.0710 0007048  66.7981 293.3984 15.00277827 26678
LEMUR-2-FINNIAN         
1 66782U 25276DX  26194.75486397  .00001614  00000+0  13230-3 0  9995
2 66782  97.5311 264.9238 0008117   7.7708 352.3641 15.00606139 23984
